OUFTI-1                 
1 41458U 16025C   22003.91945032  .00005092  00000+0  23629-3 0  9996
2 41458  98.1665 158.8144 0154139 102.7696 259.0807 15.10521365312718
E-ST@R-II               
1 41459U 16025D   22003.83902891  .00006016  00000+0  28223-3 0  9996
2 41459  98.1650 157.5466 0156471 106.6051 255.2425 15.09793814312638
AAUSAT 4                
1 41460U 16025E   22003.41771172  .00008914  00000+0  39014-3 0  9997
2 41460  98.1616 162.0711 0141067  88.4388 273.2961 15.13685842312935
AIST-2D (RS-48)         
1 41465U 16026B   22003.93698942  .00006237  00000+0  16939-3 0  9990
2 41465  97.0794 245.9951 0011254  19.5910 107.1542 15.37860199318226
SAMSAT-218D             
1 41466U 16026C   22003.96753678  .00101496  00000+0  72020-3 0  9998
2 41466  97.1444 279.2742 0001261  99.2686 321.8233 15.73620797320133
NUSAT-1 (FRESCO)        
1 41557U 16033B   22003.91765411  .00005717  00000+0  19348-3 0  9993
2 41557  97.3922 101.8966 0010880 238.5864 254.4684 15.30948255312180
NUSAT-2 (BATATA)        
1 41558U 16033C   22004.09764067  .00005615  00000+0  17797-3 0  9993
2 41558  97.4071 106.8824 0009904 229.6215 252.7249 15.33082602312446
CARTOSAT-2C             
1 41599U 16040A   22003.95101999 -.00004805  00000+0 -22500-3 0  9999
2 41599  97.5136  64.7554 0014347  45.2888  79.2237 15.19153911306955
SATHYABAMASAT           
1 41600U 16040B   22003.67211596  .00006023  00000+0  22255-3 0  9995
2 41600  97.2470  60.4286 0012028 355.9983   4.1158 15.28026044307701
LAPAN-A3                
1 41603U 16040E   22003.90683135  .00000723  00000+0  36315-4 0  9990
2 41603  97.2307  47.9297 0014213  26.1343  91.3611 15.20228087307031
BIROS                   
1 41604U 16040F   22003.75000651  .00001702  00000+0  74888-4 0  9995
2 41604  97.2363  54.2575 0011990   3.3090 356.8225 15.23127130307387
SWAYAM                  
1 41607U 16040J   22002.96407730  .00005827  00000+0  21861-3 0  9993
2 41607  97.2425  58.2910 0011912 359.7976   0.3257 15.27537692307480
BEESAT-4                
1 41619U 16040W   22003.69748572  .00005449  00000+0  20752-3 0  9997
2 41619  97.2435  59.0370 0009841 352.5715   7.5377 15.27090381295558
3CAT-2                  
1 41732U 16051B   22003.72250341  .00004951  00000+0  17152-3 0  9998
2 41732  97.3842 287.4343 0012896 147.2041 269.5744 15.30229918300110
PRATHAM                 
1 41783U 16059A   22003.35590575  .00000171  00000+0  42044-4 0  9996
2 41783  97.9383  51.3225 0032879 337.4701  22.5056 14.63211312281483
ALSAT 1N                
1 41789U 16059G   22003.76842502  .00000279  00000+0  61291-4 0  9991
2 41789  97.9430  55.8993 0027236 320.3956  39.5245 14.64510311281768
LISHUI 1-01             
1 41845U 16066E   22003.76399151  .00038810  00000+0  45508-2 0  9992
2 41845  98.7302 123.4938 0254869 223.2337 134.8429 14.64268076272656
CARTOSAT-2D             
1 41948U 17008A   22003.70142623  .00001596  00000+0  78797-4 0  9996
2 41948  97.4175  65.7742 0007015 169.0142 191.1214 15.19307046270787
NAYIF-1 (EO-88)         
1 42017U 17008BX  22003.70125194  .00006054  00000+0  21107-3 0  9994
2 42017  97.2934  72.6464 0007214 111.5344 248.6666 15.29977628271859
ZHUHAI-1 02 (CAS-4B)    
1 42759U 17034B   22003.94496506  .00001359  00000+0  93797-4 0  9998
2 42759  43.0153 158.5174 0008802 330.4973 174.5974 15.10686961251461
ZHUHAI-1 01 (CAS-4A)    
1 42761U 17034D   22003.79167036  .00001256  00000+0  87484-4 0  9999
2 42761  43.0156 158.2651 0009178 332.5101 170.1266 15.10773044251440
UCLSAT                  
1 42765U 17036A   22003.92358933  .00004093  00000+0  16054-3 0  9994
2 42765  97.2233  51.9747 0010261 178.6732 181.4536 15.26243115252736
NIUSAT                  
1 42766U 17036B   22003.75071295  .00003278  00000+0  13879-3 0  9995
2 42766  97.2253  47.5840 0014489 182.5909 177.5256 15.23768012251706
CARTOSAT-2E             
1 42767U 17036C   22003.80942300 -.00002258  00000+0 -10412-3 0  9995
2 42767  97.4797  66.2214 0007194 223.9218 271.6306 15.19191282251361
LITUANICASAT-2          
1 42768U 17036D   22003.69364772  .00008616  00000+0  31009-3 0  9991
2 42768  97.2319  53.3205 0013068 168.2442 191.9106 15.28747949252038
AALTO-1                 
1 42775U 17036L   22003.87220829  .00002474  00000+0  10624-3 0  9999
2 42775  97.2215  47.8222 0013095 180.6430 179.4793 15.23518742251701
URSA MAIOR              
1 42776U 17036M   22003.76929089  .00002990  00000+0  12649-3 0  9994
2 42776  97.2229  48.3151 0012877 180.0243 180.0996 15.23880591251715
COMPASS 2               
1 42777U 17036N   22003.05526673  .00006189  00000+0  23183-3 0  9998
2 42777  97.2306  52.5738 0011229 171.4559 188.6874 15.27569596251862
MAX VALIER SAT          
1 42778U 17036P   22003.42910132  .00002949  00000+0  12225-3 0  9992
2 42778  97.2301  50.2911 0011453 181.8770 178.2427 15.24596893251748
PEGASUS                 
1 42784U 17036V   22003.70424170  .00003716  00000+0  14850-3 0  9991
2 42784  97.2246  51.1687 0010849 182.7329 177.3852 15.25668591251873
NUDTSAT                 
1 42787U 17036Y   22003.94084068  .00008389  00000+0  30583-3 0  9990
2 42787  97.2290  54.5603 0009793 171.7101 188.4279 15.28369516251933
SUCHAI                  
1 42788U 17036Z   22003.64993443  .00005077  00000+0  19550-3 0  9996
2 42788  97.2254  52.3981 0010467 178.6151 181.5119 15.26747536252017
SKCUBE                  
1 42789U 17036AA  22003.65460384  .00004687  00000+0  18279-3 0  9994
2 42789  97.2249  52.0067 0010466 179.2710 180.8546 15.26360621251911
VZLUSAT-1               
1 42790U 17036AB  22003.93987885  .00006071  00000+0  22254-3 0  9994
2 42790  97.2282  54.5420 0009837 171.5952 188.5455 15.28305475252084
ROBUSTA-1B              
1 42792U 17036AD  22003.91594906  .00004270  00000+0  16525-3 0  9995
2 42792  97.2250  52.7254 0009980 178.2672 181.8603 15.26671569251996
D-SAT                   
1 42794U 17036AF  22003.58992946  .00001235  00000+0  11098-3 0  9994
2 42794  97.4538  17.7851 0123231 277.0061  81.7156 14.91894073246925
NORSAT 2                
1 42828U 17042D   22003.62873410  .00001109  00000+0  11397-3 0  9990
2 42828  97.4492 229.0339 0013733 190.1150 169.9795 14.92163760243580
TECHNOSAT               
1 42829U 17042E   22004.20156861  .00000354  00000+0  40589-4 0  9997
2 42829  97.4399 227.7436 0013669 190.4753 169.6183 14.91460939243608
2017-042F               
1 42830U 17042F   22003.58236771  .00002401  00000+0  23288-3 0  9999
2 42830  97.4538 230.6380 0013444 182.8985 177.2160 14.93493663243667
FLYING LAPTOP           
1 42831U 17042G   22003.90596533  .00000942  00000+0  99332-4 0  9993
2 42831  97.4417 227.7422 0013433 191.3540 168.7386 14.91455497243563
CORVUS BC2              
1 42846U 17042X   22003.43976517  .00000743  00000+0  77455-4 0  9992
2 42846  97.4431 229.8925 0009301 180.2741 179.8476 14.92481648243667
CORVUS BC1              
1 42847U 17042Y   22003.12930479  .00000421  00000+0  45956-4 0  9990
2 42847  97.4436 229.8743 0008973 179.8534 180.2690 14.92577938243627
SIMPL                   
1 42983U 98067NF  22003.90782439  .00021678  00000+0  15768-3 0  9998
2 42983  51.6358 316.9714 0003538  51.8864 308.2453 15.73276643238886
CZ-4C R/B               
1 43012U 17072C   22003.57941833  .00000108  00000+0  33250-4 0  9999
2 43012  98.7167  32.4392 0128523 101.4460 260.1202 14.56236714219868
RADFXSAT (FOX-1B)       
1 43017U 17073E   22003.68793555  .00002469  00000+0  19263-3 0  9992
2 43017  97.6924 264.5869 0253297   7.0649 353.4025 14.80121084222735
EAGLESAT 1              
1 43018U 17073F   22003.62721501  .00004124  00000+0  31130-3 0  9996
2 43018  97.6945 265.8079 0248673   2.7387 357.5121 14.81535452222673
INS-1C                  
1 43116U 18004F   22003.87915881  .00004146  00000+0  16146-3 0  9997
2 43116  97.3957  81.4087 0007897 205.9911 154.0932 15.26520719221202
FLOCK 3P'-3             
1 43119U 18004J   22003.58970776  .00002950  00000+0  12042-3 0  9994
2 43119  97.3947  79.6595 0008678 218.2586 141.8037 15.25164070221078
FLOCK 3P'-2             
1 43120U 18004K   22003.94129141  .00002497  00000+0  10355-3 0  9999
2 43120  97.3954  79.7168 0008682 217.9263 142.1365 15.24782010221109
FLOCK 3P'-1             
1 43121U 18004L   22003.76193156  .00008147  00000+0  28280-3 0  9991
2 43121  97.3953  82.6358 0007495 203.0544 157.0362 15.30014563221214
FLOCK 3P'-4             
1 43122U 18004M   22003.73474250  .00002375  00000+0  98462-4 0  9993
2 43122  97.3964  79.6549 0008431 219.9189 140.1430 15.24843755221076
MICROMAS-2A             
1 43131U 18004W   22003.73476833  .00007892  00000+0  27717-3 0  9995
2 43131  97.3947  83.4426 0007076 204.1281 155.9629 15.29644400221353
PICSAT                  
1 43132U 18004X   22003.78271407  .00005374  00000+0  20309-3 0  9994
2 43132  97.3917  81.4828 0007691 212.8200 147.2562 15.27380223221241
CNUSAIL-1               
1 43133U 18004Y   22003.89623645  .00003336  00000+0  13272-3 0  9999
2 43133  97.3879  80.1699 0007896 216.3518 143.7184 15.25943570221181
2018-004Z               
1 43134U 18004Z   22003.75855480  .00004674  00000+0  18002-3 0  9991
2 43134  97.3905  80.9812 0007632 214.9410 145.1329 15.26821480221217
FOX-1D (AO-92)          
1 43137U 18004AC  22003.88836631  .00003644  00000+0  14259-3 0  9991
2 43137  97.3887  80.7844 0007369 215.2361 144.8391 15.26445572221217
STEP CUBE LAB           
1 43138U 18004AD  22003.14152454  .00006971  00000+0  25030-3 0  9990
2 43138  97.3947  82.5334 0006989 211.8708 148.2110 15.28966239221243
XIAOXIANG-2             
1 43155U 18008A   22003.95342653  .00003022  00000+0  17297-3 0  9994
2 43155  97.3785  67.6994 0017024   1.0779 123.2307 15.13268299218384
ZHOU ENLAI              
1 43156U 18008B   22003.93634668  .00003127  00000+0  18075-3 0  9994
2 43156  97.3833  67.5282 0014327   2.5238 117.8068 15.12922479218319
